start=new Date('2021-12-11T00:00:00.000Z').valueOf();
sats=[{"INCLINATION":"53.0533","GP_ID":"191459337","OBJECT_ID":"2021-005AA","CENTER_NAME":"EARTH","COUNTRY_CODE":"US","PERIOD":"95.593","REF_FRAME":"TEME","MEAN_ELEMENT_THEORY":"SGP4","TLE_LINE1":"1 47373U 21005AA  21344.89510602 -.00001626  00000-0 -90277-4 0  9993","MEAN_MOTION_DOT":"-0.00001626","DECAY_DATE":null,"MEAN_ANOMALY":"279.5686","BSTAR":"-0.00009027700000","REV_AT_EPOCH":"4945","TIME_SYSTEM":"UTC","PERIAPSIS":"545.708","ARG_OF_PERICENTER":"80.5553","FILE":"3237005","EPOCH":"2021-12-10T21:28:57.160128","NORAD_CAT_ID":"47373","ECCENTRICITY":"0.00022130","SEMIMAJOR_AXIS":"6925.375","ELEMENT_SET_NO":"999","RA_OF_ASC_NODE":"178.9096","TLE_LINE2":"2 47373  53.0533 178.9096 0002213  80.5553 279.5686 15.06391243 49458","LAUNCH_DATE":"2021-01-20","OBJECT_TYPE":"PAYLOAD","SITE":"AFETR","EPHEMERIS_TYPE":"0","CLASSIFICATION_TYPE":"U","APOAPSIS":"548.773","RCS_SIZE":"LARGE","MEAN_MOTION_DDOT":"0.0000000000000","OBJECT_NAME":"STARLINK-2092","MEAN_MOTION":"15.06391243"},{"RCS_SIZE":"LARGE","MEAN_MOTION_DDOT":"0.0000000000000","APOAPSIS":"548.827","MEAN_MOTION":"15.06402519","OBJECT_NAME":"STARLINK-2093","CLASSIFICATION_TYPE":"U","SITE":"AFETR","EPHEMERIS_TYPE":"0","ELEMENT_SET_NO":"999","SEMIMAJOR_AXIS":"6925.341","RA_OF_ASC_NODE":"179.1910","TLE_LINE2":"2 47374  53.0519 179.1910 0002341  75.6935 284.4314 15.06402519 49443","OBJECT_TYPE":"PAYLOAD","LAUNCH_DATE":"2021-01-20","FILE":"3237005","EPOCH":"2021-12-10T20:23:54.228480","ARG_OF_PERICENTER":"75.6935","NORAD_CAT_ID":"47374","ECCENTRICITY":"0.00023410","PERIAPSIS":"545.585","MEAN_ANOMALY":"284.4314","REV_AT_EPOCH":"4944","TIME_SYSTEM":"UTC","BSTAR":"0.00004968600000","MEAN_MOTION_DOT":"0.00000458","MEAN_ELEMENT_THEORY":"SGP4","TLE_LINE1":"1 47374U 21005AB  21344.84993320  .00000458  00000-0  49686-4 0  9999","DECAY_DATE":null,"INCLINATION":"53.0519","GP_ID":"191459087","REF_FRAME":"TEME","PERIOD":"95.592","CENTER_NAME":"EARTH","OBJECT_ID":"2021-005AB","COUNTRY_CODE":"US"},{"DECAY_DATE":null,"MEAN_MOTION_DOT":"0.00000311","MEAN_ELEMENT_THEORY":"SGP4","TLE_LINE1":"1 47375U 21005AC  21344.92091289  .00000311  00000-0  39766-4 0  9998","REF_FRAME":"TEME","PERIOD":"95.592","CENTER_NAME":"EARTH","OBJECT_ID":"2021-005AC","COUNTRY_CODE":"US","INCLINATION":"53.0542","GP_ID":"191457835","PERIAPSIS":"545.673","REV_AT_EPOCH":"4945","TIME_SYSTEM":"UTC","BSTAR":"0.00003976600000","MEAN_ANOMALY":"277.8944","RA_OF_ASC_NODE":"178.8102","LAUNCH_DATE":"2021-01-20","TLE_LINE2":"2 47375  53.0542 178.8102 0002217  82.2297 277.8944 15.06401805 49459","OBJECT_TYPE":"PAYLOAD","ELEMENT_SET_NO":"999","SEMIMAJOR_AXIS":"6925.343","NORAD_CAT_ID":"47375","ECCENTRICITY":"0.00022170","FILE":"3237005","EPOCH":"2021-12-10T22:06:06.873696","ARG_OF_PERICENTER":"82.2297","MEAN_MOTION":"15.06401805","OBJECT_NAME":"STARLINK-2094","RCS_SIZE":"LARGE","MEAN_MOTION_DDOT":"0.0000000000000","APOAPSIS":"548.743","CLASSIFICATION_TYPE":"U","EPHEMERIS_TYPE":"0","SITE":"AFETR"},{"MEAN_MOTION_DDOT":"0.0000000000000","RCS_SIZE":"LARGE","APOAPSIS":"548.777","MEAN_MOTION":"15.06390128","OBJECT_NAME":"STARLINK-2096","CLASSIFICATION_TYPE":"U","EPHEMERIS_TYPE":"0","SITE":"AFETR","ELEMENT_SET_NO":"999","SEMIMAJOR_AXIS":"6925.379","TLE_LINE2":"2 47376  53.0548 179.6849 0002214  87.9803 272.1440 15.06390128 49426","OBJECT_TYPE":"PAYLOAD","LAUNCH_DATE":"2021-01-20","RA_OF_ASC_NODE":"179.6849","EPOCH":"2021-12-10T17:24:48.695040","FILE":"3237005","ARG_OF_PERICENTER":"87.9803","ECCENTRICITY":"0.00022140","NORAD_CAT_ID":"47376","PERIAPSIS":"545.711","MEAN_ANOMALY":"272.1440","REV_AT_EPOCH":"4942","TIME_SYSTEM":"UTC","BSTAR":"-0.00008284300000","MEAN_MOTION_DOT":"-0.00001515","TLE_LINE1":"1 47376U 21005AD  21344.72556360 -.00001515  00000-0 -82843-4 0  9996","MEAN_ELEMENT_THEORY":"SGP4","DECAY_DATE":null,"INCLINATION":"53.0548","GP_ID":"191458586","PERIOD":"95.593","REF_FRAME":"TEME","COUNTRY_CODE":"US","OBJECT_ID":"2021-005AD","CENTER_NAME":"EARTH"},{"SITE":"AFETR","EPHEMERIS_TYPE":"0","CLASSIFICATION_TYPE":"U","APOAPSIS":"549.080","MEAN_MOTION_DDOT":"0.0000000000000","RCS_SIZE":"LARGE","OBJECT_NAME":"STARLINK-2097","MEAN_MOTION":"15.06389085","ARG_OF_PERICENTER":"82.5110","EPOCH":"2021-12-10T20:14:41.117280","FILE":"3237005","ECCENTRICITY":"0.00026470","NORAD_CAT_ID":"47377","SEMIMAJOR_AXIS":"6925.382","ELEMENT_SET_NO":"999","TLE_LINE2":"2 47377  53.0594 179.1150 0002647  82.5110 277.6180 15.06389085 49443","LAUNCH_DATE":"2021-01-20","OBJECT_TYPE":"PAYLOAD","RA_OF_ASC_NODE":"179.1150","MEAN_ANOMALY":"277.6180","BSTAR":"0.00004261300000","REV_AT_EPOCH":"4944","TIME_SYSTEM":"UTC","PERIAPSIS":"545.414","GP_ID":"191458837","INCLINATION":"53.0594","COUNTRY_CODE":"US","CENTER_NAME":"EARTH","OBJECT_ID":"2021-005AE","REF_FRAME":"TEME","PERIOD":"95.593","TLE_LINE1":"1 47377U 21005AE  21344.84353145  .00000353  00000-0  42613-4 0  9994","MEAN_ELEMENT_THEORY":"SGP4","MEAN_MOTION_DOT":"0.00000353","DECAY_DATE":null},{"TLE_LINE2":"2 47378  53.0559 139.7796 0002176  98.0381 262.0855 15.06406913 49988","OBJECT_TYPE":"PAYLOAD","LAUNCH_DATE":"2021-01-20","RA_OF_ASC_NODE":"139.7796","SEMIMAJOR_AXIS":"6925.327","ELEMENT_SET_NO":"999","ECCENTRICITY":"0.00021760","NORAD_CAT_ID":"47378","ARG_OF_PERICENTER":"98.0381","EPOCH":"2021-12-10T16:52:56.121312","FILE":"3237005","OBJECT_NAME":"STARLINK-2098","MEAN_MOTION":"15.06406913","APOAPSIS":"548.699","MEAN_MOTION_DDOT":"0.0000000000000","RCS_SIZE":"LARGE","SITE":"AFETR","EPHEMERIS_TYPE":"0","CLASSIFICATION_TYPE":"U","DECAY_DATE":null,"TLE_LINE1":"1 47378U 21005AF  21344.70342733  .00000508  00000-0  53033-4 0  9991","MEAN_ELEMENT_THEORY":"SGP4","MEAN_MOTION_DOT":"0.00000508","COUNTRY_CODE":"US","OBJECT_ID":"2021-005AF","CENTER_NAME":"EARTH","REF_FRAME":"TEME","PERIOD":"95.592","GP_ID":"191459588","INCLINATION":"53.0559","PERIAPSIS":"545.685","BSTAR":"0.00005303300000","REV_AT_EPOCH":"4998","TIME_SYSTEM":"UTC","MEAN_ANOMALY":"262.0855"},{"REV_AT_EPOCH":"5000","TIME_SYSTEM":"UTC","BSTAR":"0.00004900300000","MEAN_ANOMALY":"266.7499","PERIAPSIS":"545.819","REF_FRAME":"TEME","PERIOD":"95.592","COUNTRY_CODE":"US","CENTER_NAME":"EARTH","OBJECT_ID":"2021-005AG","INCLINATION":"53.0543","GP_ID":"191458336","DECAY_DATE":null,"MEAN_MOTION_DOT":"0.00000448","TLE_LINE1":"1 47379U 21005AG  21344.84350059  .00000448  00000-0  49003-4 0  9992","MEAN_ELEMENT_THEORY":"SGP4","CLASSIFICATION_TYPE":"U","EPHEMERIS_TYPE":"0","SITE":"AFETR","MEAN_MOTION":"15.06405155","OBJECT_NAME":"STARLINK-2099","MEAN_MOTION_DDOT":"0.0000000000000","RCS_SIZE":"LARGE","APOAPSIS":"548.577","ECCENTRICITY":"0.00019910","NORAD_CAT_ID":"47379","EPOCH":"2021-12-10T20:14:38.450976","FILE":"3237005","ARG_OF_PERICENTER":"93.3717","TLE_LINE2":"2 47379  53.0543 139.1420 0001991  93.3717 266.7499 15.06405155 50002","OBJECT_TYPE":"PAYLOAD","LAUNCH_DATE":"2021-01-20","RA_OF_ASC_NODE":"139.1420","ELEMENT_SET_NO":"999","SEMIMAJOR_AXIS":"6925.333"},{"DECAY_DATE":null,"MEAN_MOTION_DOT":"0.00000517","MEAN_ELEMENT_THEORY":"SGP4","TLE_LINE1":"1 47380U 21005AH  21344.73938855  .00000517  00000-0  53643-4 0  9990","PERIOD":"95.592","REF_FRAME":"TEME","CENTER_NAME":"EARTH","OBJECT_ID":"2021-005AH","COUNTRY_CODE":"US","GP_ID":"191458086","INCLINATION":"53.0542","PERIAPSIS":"545.806","REV_AT_EPOCH":"4985","TIME_SYSTEM":"UTC","BSTAR":"0.00005364300000","MEAN_ANOMALY":"271.4154","RA_OF_ASC_NODE":"149.6261","TLE_LINE2":"2 47380  53.0542 149.6261 0002046  88.7069 271.4154 15.06396990 49850","LAUNCH_DATE":"2021-01-20","OBJECT_TYPE":"PAYLOAD","ELEMENT_SET_NO":"999","SEMIMAJOR_AXIS":"6925.358","NORAD_CAT_ID":"47380","ECCENTRICITY":"0.00020460","FILE":"3237005","EPOCH":"2021-12-10T17:44:43.170720","ARG_OF_PERICENTER":"88.7069","MEAN_MOTION":"15.06396990","OBJECT_NAME":"STARLINK-2100","RCS_SIZE":"LARGE","MEAN_MOTION_DDOT":"0.0000000000000","APOAPSIS":"548.640","CLASSIFICATION_TYPE":"U","SITE":"AFETR","EPHEMERIS_TYPE":"0"},{"ELEMENT_SET_NO":"999","SEMIMAJOR_AXIS":"6925.372","OBJECT_TYPE":"PAYLOAD","TLE_LINE2":"2 47381  53.0545 153.9953 0002234  89.7596 270.3649 15.06392367 49801","LAUNCH_DATE":"2021-01-20","RA_OF_ASC_NODE":"153.9953","EPOCH":"2021-12-10T21:07:03.454176","FILE":"3237005","ARG_OF_PERICENTER":"89.7596","ECCENTRICITY":"0.00022340","NORAD_CAT_ID":"47381","MEAN_MOTION_DDOT":"0.0000000000000","RCS_SIZE":"LARGE","APOAPSIS":"548.784","MEAN_MOTION":"15.06392367","OBJECT_NAME":"STARLINK-2101","CLASSIFICATION_TYPE":"U","SITE":"AFETR","EPHEMERIS_TYPE":"0","MEAN_MOTION_DOT":"0.00000154","TLE_LINE1":"1 47381U 21005AJ  21344.87990109  .00000154  00000-0  29280-4 0  9993","MEAN_ELEMENT_THEORY":"SGP4","DECAY_DATE":null,"GP_ID":"191459338","INCLINATION":"53.0545","REF_FRAME":"TEME","PERIOD":"95.593","COUNTRY_CODE":"US","CENTER_NAME":"EARTH","OBJECT_ID":"2021-005AJ","PERIAPSIS":"545.690","MEAN_ANOMALY":"270.3649","REV_AT_EPOCH":"4980","TIME_SYSTEM":"UTC","BSTAR":"0.00002928000000"},{"REV_AT_EPOCH":"4986","TIME_SYSTEM":"UTC","BSTAR":"0.00003123600000","MEAN_ANOMALY":"267.9189","PERIAPSIS":"545.765","REF_FRAME":"TEME","PERIOD":"95.592","COUNTRY_CODE":"US","CENTER_NAME":"EARTH","OBJECT_ID":"2021-005AK","GP_ID":"191459088","INCLINATION":"53.0545","DECAY_DATE":null,"MEAN_MOTION_DOT":"0.00000184","TLE_LINE1":"1 47382U 21005AK  21344.86470762  .00000184  00000-0  31236-4 0  9998","MEAN_ELEMENT_THEORY":"SGP4","CLASSIFICATION_TYPE":"U","SITE":"AFETR","EPHEMERIS_TYPE":"0","MEAN_MOTION":"15.06397345","OBJECT_NAME":"STARLINK-2102","MEAN_MOTION_DDOT":"0.0000000000000","RCS_SIZE":"LARGE","APOAPSIS":"548.678","ECCENTRICITY":"0.00021030","NORAD_CAT_ID":"47382","EPOCH":"2021-12-10T20:45:10.738368","FILE":"3237005","ARG_OF_PERICENTER":"92.2041","LAUNCH_DATE":"2021-01-20","TLE_LINE2":"2 47382  53.0545 149.0432 0002103  92.2041 267.9189 15.06397345 49867","OBJECT_TYPE":"PAYLOAD","RA_OF_ASC_NODE":"149.0432","ELEMENT_SET_NO":"999","SEMIMAJOR_AXIS":"6925.357"}];
